{"fetched_at":"2026-07-21T07:06:31.784Z","source":"https://celestrak.org/NORAD/elements/gp.php?GROUP=qianfan&FORMAT=JSON","constellation":"qianfan","records":[{"OBJECT_NAME":"QIANFAN-81","OBJECT_ID":"2025-046J","EPOCH":"2026-07-20T21:38:56.516064","CLASSIFICATION_TYPE":"U","MEAN_MOTION":13.51025376,"ECCENTRICITY":0.00147013,"INCLINATION":88.9722,"RA_OF_ASC_NODE":297.033,"ARG_OF_PERICENTER":196.477,"MEAN_ANOMALY":163.5905,"EPHEMERIS_TYPE":0,"NORAD_CAT_ID":63167,"ELEMENT_SET_NO":999,"REV_AT_EPOCH":7721,"BSTAR":0.00015498488,"MEAN_MOTION_DOT":0.00000112,"MEAN_MOTION_DDOT":0},{"OBJECT_NAME":"QIANFAN-82","OBJECT_ID":"2025-046K","EPOCH":"2026-07-20T20:39:46.346976","CLASSIFICATION_TYPE":"U","MEAN_MOTION":13.51019924,"ECCENTRICITY":0.00122992,"INCLINATION":88.9723,"RA_OF_ASC_NODE":297.0814,"ARG_OF_PERICENTER":201.9772,"MEAN_ANOMALY":158.0853,"EPHEMERIS_TYPE":0,"NORAD_CAT_ID":63168,"ELEMENT_SET_NO":999,"REV_AT_EPOCH":7719,"BSTAR":0.00016632464,"MEAN_MOTION_DOT":0.00000119,"MEAN_MOTION_DDOT":0},{"OBJECT_NAME":"QIANFAN-83","OBJECT_ID":"2025-046L","EPOCH":"2026-07-20T20:55:18.034464","CLASSIFICATION_TYPE":"U","MEAN_MOTION":13.62052651,"ECCENTRICITY":0.00147113,"INCLINATION":88.9723,"RA_OF_ASC_NODE":296.423,"ARG_OF_PERICENTER":176.2386,"MEAN_ANOMALY":183.8884,"EPHEMERIS_TYPE":0,"NORAD_CAT_ID":63169,"ELEMENT_SET_NO":999,"REV_AT_EPOCH":7756,"BSTAR":0.00015943126,"MEAN_MOTION_DOT":0.00000135,"MEAN_MOTION_DDOT":0},{"OBJECT_NAME":"QIANFAN-84","OBJECT_ID":"2025-046M","EPOCH":"2026-07-20T21:21:25.175808","CLASSIFICATION_TYPE":"U","MEAN_MOTION":13.51045987,"ECCENTRICITY":0.00154839,"INCLINATION":88.9723,"RA_OF_ASC_NODE":297.211,"ARG_OF_PERICENTER":200.3434,"MEAN_ANOMALY":159.7102,"EPHEMERIS_TYPE":0,"NORAD_CAT_ID":63170,"ELEMENT_SET_NO":999,"REV_AT_EPOCH":7712,"BSTAR":0.00016219684,"MEAN_MOTION_DOT":0.00000117,"MEAN_MOTION_DDOT":0},{"OBJECT_NAME":"QIANFAN-85","OBJECT_ID":"2025-046N","EPOCH":"2026-07-20T19:28:40.032480","CLASSIFICATION_TYPE":"U","MEAN_MOTION":13.51017557,"ECCENTRICITY":0.00128455,"INCLINATION":88.9722,"RA_OF_ASC_NODE":297.0892,"ARG_OF_PERICENTER":201.3239,"MEAN_ANOMALY":158.7378,"EPHEMERIS_TYPE":0,"NORAD_CAT_ID":63171,"ELEMENT_SET_NO":999,"REV_AT_EPOCH":7718,"BSTAR":0.00017230602,"MEAN_MOTION_DOT":0.00000123,"MEAN_MOTION_DDOT":0},{"OBJECT_NAME":"QIANFAN-86","OBJECT_ID":"2025-046P","EPOCH":"2026-07-20T21:27:09.483264","CLASSIFICATION_TYPE":"U","MEAN_MOTION":13.51025149,"ECCENTRICITY":0.0010553,"INCLINATION":88.9724,"RA_OF_ASC_NODE":296.948,"ARG_OF_PERICENTER":203.3606,"MEAN_ANOMALY":156.7067,"EPHEMERIS_TYPE":0,"NORAD_CAT_ID":63172,"ELEMENT_SET_NO":999,"REV_AT_EPOCH":7727,"BSTAR":0.00018090266,"MEAN_MOTION_DOT":0.00000129,"MEAN_MOTION_DDOT":0},{"OBJECT_NAME":"QIANFAN-87","OBJECT_ID":"2025-046Q","EPOCH":"2026-07-20T20:45:52.258752","CLASSIFICATION_TYPE":"U","MEAN_MOTION":13.5101073,"ECCENTRICITY":0.00112852,"INCLINATION":88.972,"RA_OF_ASC_NODE":297.0544,"ARG_OF_PERICENTER":199.0513,"MEAN_ANOMALY":161.0217,"EPHEMERIS_TYPE":0,"NORAD_CAT_ID":63173,"ELEMENT_SET_NO":999,"REV_AT_EPOCH":7720,"BSTAR":0.0001471737,"MEAN_MOTION_DOT":0.00000107,"MEAN_MOTION_DDOT":0},{"OBJECT_NAME":"QIANFAN-88","OBJECT_ID":"2025-046R","EPOCH":"2026-07-20T21:09:31.184352","CLASSIFICATION_TYPE":"U","MEAN_MOTION":13.51018306,"ECCENTRICITY":0.00113692,"INCLINATION":88.9723,"RA_OF_ASC_NODE":297.0127,"ARG_OF_PERICENTER":208.0603,"MEAN_ANOMALY":151.9937,"EPHEMERIS_TYPE":0,"NORAD_CAT_ID":63174,"ELEMENT_SET_NO":999,"REV_AT_EPOCH":7723,"BSTAR":0.00016487247,"MEAN_MOTION_DOT":0.00000119,"MEAN_MOTION_DDOT":0},{"OBJECT_NAME":"QIANFAN-89","OBJECT_ID":"2025-046S","EPOCH":"2026-07-20T22:02:39.134400","CLASSIFICATION_TYPE":"U","MEAN_MOTION":13.51025463,"ECCENTRICITY":0.00163024,"INCLINATION":88.9723,"RA_OF_ASC_NODE":297.1977,"ARG_OF_PERICENTER":201.1196,"MEAN_ANOMALY":158.9284,"EPHEMERIS_TYPE":0,"NORAD_CAT_ID":63175,"ELEMENT_SET_NO":999,"REV_AT_EPOCH":7713,"BSTAR":0.00014905855,"MEAN_MOTION_DOT":0.00000108,"MEAN_MOTION_DDOT":0},{"OBJECT_NAME":"QIANFAN-90","OBJECT_ID":"2025-046T","EPOCH":"2026-07-20T20:57:30.929760","CLASSIFICATION_TYPE":"U","MEAN_MOTION":13.51017965,"ECCENTRICITY":0.00133011,"INCLINATION":88.9723,"RA_OF_ASC_NODE":297.1754,"ARG_OF_PERICENTER":198.0074,"MEAN_ANOMALY":162.0608,"EPHEMERIS_TYPE":0,"NORAD_CAT_ID":63176,"ELEMENT_SET_NO":999,"REV_AT_EPOCH":7714,"BSTAR":0.00015467928,"MEAN_MOTION_DOT":0.00000112,"MEAN_MOTION_DDOT":0},{"OBJECT_NAME":"QIANFAN-91","OBJECT_ID":"2025-233A","EPOCH":"2026-07-20T02:11:07.501920","CLASSIFICATION_TYPE":"U","MEAN_MOTION":13.51015124,"ECCENTRICITY":0.00021254,"INCLINATION":88.9981,"RA_OF_ASC_NODE":39.8599,"ARG_OF_PERICENTER":95.1343,"MEAN_ANOMALY":265.0051,"EPHEMERIS_TYPE":0,"NORAD_CAT_ID":66033,"ELEMENT_SET_NO":999,"REV_AT_EPOCH":3762,"BSTAR":0.000001827454,"MEAN_MOTION_DOT":1.3e-7,"MEAN_MOTION_DDOT":0},{"OBJECT_NAME":"QIANFAN-92","OBJECT_ID":"2025-233B","EPOCH":"2026-07-20T20:09:25.733088","CLASSIFICATION_TYPE":"U","MEAN_MOTION":13.51013628,"ECCENTRICITY":0.00019832,"INCLINATION":88.9964,"RA_OF_ASC_NODE":39.7501,"ARG_OF_PERICENTER":89.7639,"MEAN_ANOMALY":270.3739,"EPHEMERIS_TYPE":0,"NORAD_CAT_ID":66034,"ELEMENT_SET_NO":999,"REV_AT_EPOCH":3772,"BSTAR":0.000039284719,"MEAN_MOTION_DOT":3.7e-7,"MEAN_MOTION_DDOT":0},{"OBJECT_NAME":"QIANFAN-93","OBJECT_ID":"2025-233C","EPOCH":"2026-07-20T22:07:53.867136","CLASSIFICATION_TYPE":"U","MEAN_MOTION":13.51016939,"ECCENTRICITY":0.00020638,"INCLINATION":88.9991,"RA_OF_ASC_NODE":39.8028,"ARG_OF_PERICENTER":93.9492,"MEAN_ANOMALY":266.1895,"EPHEMERIS_TYPE":0,"NORAD_CAT_ID":66035,"ELEMENT_SET_NO":999,"REV_AT_EPOCH":3773,"BSTAR":0.000013460028,"MEAN_MOTION_DOT":2.1e-7,"MEAN_MOTION_DDOT":0},{"OBJECT_NAME":"QIANFAN-94","OBJECT_ID":"2025-233D","EPOCH":"2026-07-20T21:50:10.191552","CLASSIFICATION_TYPE":"U","MEAN_MOTION":13.51015964,"ECCENTRICITY":0.00021162,"INCLINATION":88.9988,"RA_OF_ASC_NODE":39.7062,"ARG_OF_PERICENTER":89.848,"MEAN_ANOMALY":270.2914,"EPHEMERIS_TYPE":0,"NORAD_CAT_ID":66036,"ELEMENT_SET_NO":999,"REV_AT_EPOCH":3778,"BSTAR":0.000042160034,"MEAN_MOTION_DOT":3.9e-7,"MEAN_MOTION_DDOT":0},{"OBJECT_NAME":"QIANFAN-95","OBJECT_ID":"2025-233E","EPOCH":"2026-07-20T22:02:01.983264","CLASSIFICATION_TYPE":"U","MEAN_MOTION":13.51016948,"ECCENTRICITY":0.00022461,"INCLINATION":88.9985,"RA_OF_ASC_NODE":39.248,"ARG_OF_PERICENTER":93.4289,"MEAN_ANOMALY":266.7119,"EPHEMERIS_TYPE":0,"NORAD_CAT_ID":66037,"ELEMENT_SET_NO":999,"REV_AT_EPOCH":3803,"BSTAR":0.000038031025,"MEAN_MOTION_DOT":3.7e-7,"MEAN_MOTION_DDOT":0},{"OBJECT_NAME":"QIANFAN-96","OBJECT_ID":"2025-233F","EPOCH":"2026-07-20T01:17:48.159168","CLASSIFICATION_TYPE":"U","MEAN_MOTION":13.51015682,"ECCENTRICITY":0.00021519,"INCLINATION":88.9984,"RA_OF_ASC_NODE":39.8782,"ARG_OF_PERICENTER":96.3991,"MEAN_ANOMALY":263.7406,"EPHEMERIS_TYPE":0,"NORAD_CAT_ID":66038,"ELEMENT_SET_NO":999,"REV_AT_EPOCH":3761,"BSTAR":0.000009314916,"MEAN_MOTION_DOT":1.8e-7,"MEAN_MOTION_DDOT":0}]}
