QIANFAN-81              
1 63167U 25046J   26201.90204301  .00000112  00000+0  15498-3 0  9993
2 63167  88.9722 297.0330 0014701 196.4770 163.5905 13.51025376 77211
QIANFAN-82              
1 63168U 25046K   26201.86095309  .00000119  00000+0  16632-3 0  9993
2 63168  88.9723 297.0814 0012299 201.9772 158.0853 13.51019924 77194
QIANFAN-83              
1 63169U 25046L   26201.87173651  .00000135  00000+0  15943-3 0  9994
2 63169  88.9723 296.4230 0014711 176.2386 183.8884 13.62052651 77563
QIANFAN-84              
1 63170U 25046M   26201.88987472  .00000117  00000+0  16220-3 0  9990
2 63170  88.9723 297.2110 0015483 200.3434 159.7102 13.51045987 77120
QIANFAN-85              
1 63171U 25046N   26201.81157445  .00000123  00000+0  17231-3 0  9993
2 63171  88.9722 297.0892 0012845 201.3239 158.7378 13.51017557 77180
QIANFAN-86              
1 63172U 25046P   26201.89385976  .00000129  00000+0  18090-3 0  9994
2 63172  88.9724 296.9480 0010553 203.3606 156.7067 13.51025149 77277
QIANFAN-87              
1 63173U 25046Q   26201.86518818  .00000107  00000+0  14717-3 0  9993
2 63173  88.9720 297.0544 0011285 199.0513 161.0217 13.51010730 77207
QIANFAN-88              
1 63174U 25046R   26201.88161093  .00000119  00000+0  16487-3 0  9994
2 63174  88.9723 297.0127 0011369 208.0603 151.9937 13.51018306 77239
QIANFAN-89              
1 63175U 25046S   26201.91850850  .00000108  00000+0  14906-3 0  9997
2 63175  88.9723 297.1977 0016302 201.1196 158.9284 13.51025463 77130
QIANFAN-90              
1 63176U 25046T   26201.87327465  .00000112  00000+0  15468-3 0  9993
2 63176  88.9723 297.1754 0013301 198.0074 162.0608 13.51017965 77144
QIANFAN-91              
1 66033U 25233A   26201.09105905  .00000013  00000+0  18275-5 0  9994
2 66033  88.9981  39.8599 0002125  95.1343 265.0051 13.51015124 37621
QIANFAN-92              
1 66034U 25233B   26201.83988117  .00000037  00000+0  39285-4 0  9990
2 66034  88.9964  39.7501 0001983  89.7639 270.3739 13.51013628 37723
QIANFAN-93              
1 66035U 25233C   26201.92215124  .00000021  00000+0  13460-4 0  9992
2 66035  88.9991  39.8028 0002063  93.9492 266.1895 13.51016939 37738
QIANFAN-94              
1 66036U 25233D   26201.90984018  .00000039  00000+0  42160-4 0  9994
2 66036  88.9988  39.7062 0002116  89.8480 270.2914 13.51015964 37782
QIANFAN-95              
1 66037U 25233E   26201.91807851  .00000037  00000+0  38031-4 0  9995
2 66037  88.9985  39.2480 0002246  93.4289 266.7119 13.51016948 38030
QIANFAN-96              
1 66038U 25233F   26201.05402962  .00000018  00000+0  93149-5 0  9996
2 66038  88.9984  39.8782 0002151  96.3991 263.7406 13.51015682 37611
